NORAD_CAT_ID,OBJECT_NAME,OBJECT_TYPE,EPOCH,MEAN_MOTION,ECCENTRICITY,INCLINATION,RA_OF_ASC_NODE,ARG_OF_PERICENTER,MEAN_ANOMALY,BSTAR,MEAN_MOTION_DOT,MEAN_MOTION_DDOT,TLE_LINE0,TLE_LINE1,TLE_LINE2,SEMIMAJOR_AXIS,PERIOD,APOGEE,PERIGEE,DECAYED
53557.0,STARLINK-4502,PAYLOAD,2023-10-05 12:04:21,15.08838302,0.0001362,53.2176,82.3685,85.3745,274.7403,3.8519e-05,3.25e-06,0.0,0 STARLINK-4502,1 53557U 22101AG  23278.50302562  .00000325  00000-0  38519-4 0  9996,2 53557  53.2176  82.3685 0001362  85.3745 274.7403 15.08838302 63179,6917.886,95.438,540.693,538.808,0.0
53557.0,STARLINK-4502,PAYLOAD,2023-10-05 18:25:53,15.08846064,0.0001444,53.2178,81.1792,84.8693,275.2464,0.0002539,3.756e-05,0.0,0 STARLINK-4502,1 53557U 22101AG  23278.76798350  .00003756  00000-0  25390-3 0  9991,2 53557  53.2178  81.1792 0001444  84.8693 275.2464 15.08846064 63216,6917.862,95.437,540.726,538.728,0.0
53557.0,STARLINK-4502,PAYLOAD,2023-10-06 10:19:45,15.08837397,0.0001527,53.2178,78.2058,86.347,273.7696,0.00016392,2.322e-05,0.0,0 STARLINK-4502,1 53557U 22101AG  23279.43038811  .00002322  00000-0  16392-3 0  9995,2 53557  53.2178  78.2058 0001527  86.3470 273.7696 15.08837397 62667,6917.888,95.438,540.81,538.697,0.0
53557.0,STARLINK-4502,PAYLOAD,2023-10-06 18:16:41,15.08841016,0.0001525,53.2178,76.7187,84.0596,276.057,0.00021075,3.068e-05,0.0,0 STARLINK-4502,1 53557U 22101AG  23279.76158858  .00003068  00000-0  21075-3 0  9997,2 53557  53.2178  76.7187 0001525  84.0596 276.0570 15.08841016 63363,6917.877,95.437,540.797,538.687,0.0
53557.0,STARLINK-4502,PAYLOAD,2023-10-07 10:10:32,15.08837823,0.0001571,53.2177,73.7452,86.3976,273.7195,0.00019072,2.748e-05,0.0,0 STARLINK-4502,1 53557U 22101AG  23280.42399214  .00002748  00000-0  19072-3 0  9993,2 53557  53.2177  73.7452 0001571  86.3976 273.7195 15.08837823 63461,6917.887,95.438,540.839,538.665,0.0
53557.0,STARLINK-4502,PAYLOAD,2023-10-07 16:32:05,15.08847063,0.0001478,53.2177,72.5561,86.2911,273.8251,-6.5236e-05,-1.326e-05,0.0,0 STARLINK-4502,1 53557U 22101AG  23280.68894721 -.00001326  00000-0 -65236-4 0  9991,2 53557  53.2177  72.5561 0001478  86.2911 273.8251 15.08847063 62856,6917.859,95.437,540.746,538.701,0.0
53557.0,STARLINK-4502,PAYLOAD,2023-10-08 10:01:20,15.08840978,0.0001573,53.218,69.2851,86.9432,273.174,0.00015201,2.132e-05,0.0,0 STARLINK-4502,1 53557U 22101AG  23281.41759306  .00002132  00000-0  15201-3 0  9992,2 53557  53.2180  69.2851 0001573  86.9432 273.1740 15.08840978 62962,6917.877,95.437,540.831,538.654,0.0
53557.0,STARLINK-4502,PAYLOAD,2023-10-08 13:12:06,15.08841838,0.0001573,53.2181,68.6904,86.9468,273.1704,0.00015473,2.176e-05,0.0,0 STARLINK-4502,1 53557U 22101AG  23281.55007272  .00002176  00000-0  15473-3 0  9994,2 53557  53.2181  68.6904 0001573  86.9468 273.1704 15.08841838 63635,6917.875,95.437,540.828,538.652,0.0
53557.0,STARLINK-4502,PAYLOAD,2023-10-08 19:33:38,15.08847491,0.0001574,53.2178,67.4988,97.2775,262.8396,0.00020954,3.049e-05,0.0,0 STARLINK-4502,1 53557U 22101AG  23281.81502891  .00003049  00000-0  20954-3 0  9990,2 53557  53.2178  67.4988 0001574  97.2775 262.8396 15.08847491 63674,6917.857,95.437,540.811,538.634,0.0
53557.0,STARLINK-4502,PAYLOAD,2023-10-09 13:02:53,15.08842864,0.00015,53.2161,64.2273,88.0567,272.0597,8.6022e-05,1.081e-05,0.0,0 STARLINK-4502,1 53557U 22101AG  23282.54367269  .00001081  00000-0  86022-4 0  9992,2 53557  53.2161  64.2273 0001500  88.0567 272.0597 15.08842864 63781,6917.872,95.437,540.774,538.699,0.0
53557.0,STARLINK-4502,PAYLOAD,2023-10-09 16:13:39,15.08844882,0.0001429,53.2178,63.6344,91.6976,268.418,0.00014918,2.087e-05,0.0,0 STARLINK-4502,1 53557U 22101AG  23282.67615099  .00002087  00000-0  14918-3 0  9994,2 53557  53.2178  63.6344 0001429  91.6976 268.4180 15.08844882 63155,6917.865,95.437,540.719,538.742,0.0
53557.0,STARLINK-4502,PAYLOAD,2023-10-10 12:53:40,15.08845637,0.0001456,53.2183,59.7701,89.7254,270.3905,0.00014274,1.985e-05,0.0,0 STARLINK-4502,1 53557U 22101AG  23283.53726949  .00001985  00000-0  14274-3 0  9998,2 53557  53.2183  59.7701 0001456  89.7254 270.3905 15.08845637 63933,6917.863,95.437,540.735,538.721,0.0
53557.0,STARLINK-4502,PAYLOAD,2023-10-10 19:15:12,15.08855762,0.0001361,53.2176,58.578,91.4237,268.6911,0.00021738,3.175e-05,0.0,0 STARLINK-4502,1 53557U 22101AG  23283.80222237  .00003175  00000-0  21738-3 0  9995,2 53557  53.2176  58.5780 0001361  91.4237 268.6911 15.08855762 63976,6917.832,95.437,540.639,538.756,0.0
53557.0,STARLINK-4502,PAYLOAD,2023-10-11 09:33:40,15.0883849,0.0001834,53.2178,55.9017,95.4764,264.6437,-4.6371e-05,-1.026e-05,0.0,0 STARLINK-4502,1 53557U 22101AG  23284.39839092 -.00001026  00000-0 -46371-4 0  9999,2 53557  53.2178  55.9017 0001834  95.4764 264.6437 15.08838490 63413,6917.885,95.438,541.019,538.481,0.0
53557.0,STARLINK-4502,PAYLOAD,2023-10-11 12:44:27,15.08838755,0.0001701,53.2186,55.3067,98.0905,262.028,-8.9222e-06,-4.3e-06,0.0,0 STARLINK-4502,1 53557U 22101AG  23284.53087185 -.00000430  00000-0 -89222-5 0  9994,2 53557  53.2186  55.3067 0001701  98.0905 262.0280 15.08838755 64086,6917.884,95.438,540.926,538.572,0.0
53557.0,STARLINK-4502,PAYLOAD,2023-10-12 12:35:14,15.08843972,0.0001809,53.2193,50.8471,102.4104,257.7091,7.7022e-05,9.38e-06,0.0,0 STARLINK-4502,1 53557U 22101AG  23285.52447044  .00000938  00000-0  77022-4 0  9993,2 53557  53.2193  50.8471 0001809 102.4104 257.7091 15.08843972 64238,6917.868,95.437,540.985,538.482,0.0
53557.0,STARLINK-4502,PAYLOAD,2023-10-12 15:46:00,15.08845005,0.0001508,53.2193,50.2565,93.1875,266.929,0.00011059,1.473e-05,0.0,0 STARLINK-4502,1 53557U 22101AG  23285.65695026  .00001473  00000-0  11059-3 0  9994,2 53557  53.2193  50.2565 0001508  93.1875 266.9290 15.08845005 63605,6917.865,95.437,540.773,538.687,0.0
53557.0,STARLINK-4502,PAYLOAD,2023-10-13 12:26:02,15.08826065,0.0001387,53.2189,46.3927,87.0184,273.0967,0.00019584,2.829e-05,0.0,0 STARLINK-4502,1 53557U 22101AG  23286.51808295  .00002829  00000-0  19584-3 0  9991,2 53557  53.2189  46.3927 0001387  87.0184 273.0967 15.08826065 63737,6917.923,95.438,540.747,538.828,0.0
53557.0,STARLINK-4502,PAYLOAD,2023-10-13 14:01:25,15.08824878,0.0001466,53.2203,46.0952,83.4224,276.6935,0.00024271,3.575e-05,0.0,0 STARLINK-4502,1 53557U 22101AG  23286.58432449  .00003575  00000-0  24271-3 0  9990,2 53557  53.2203  46.0952 0001466  83.4224 276.6935 15.08824878 64399,6917.927,95.439,540.806,538.777,0.0
53557.0,STARLINK-4502,PAYLOAD,2023-10-13 15:36:48,15.08836197,0.0001729,53.221,45.794,88.8573,271.2617,0.00013941,1.931e-05,0.0,0 STARLINK-4502,1 53557U 22101AG  23286.65055967  .00001931  00000-0  13941-3 0  9990,2 53557  53.2210  45.7940 0001729  88.8573 271.2617 15.08836197 63752,6917.892,95.438,540.953,538.561,0.0
53557.0,STARLINK-4502,PAYLOAD,2023-10-14 07:30:39,15.08848455,0.0001424,53.2192,42.8202,84.9202,275.1953,7.6704e-05,9.33e-06,0.0,0 STARLINK-4502,1 53557U 22101AG  23287.31295306  .00000933  00000-0  76704-4 0  9995,2 53557  53.2192  42.8202 0001424  84.9202 275.1953 15.08848455 63855,6917.855,95.437,540.705,538.734,0.0
53557.0,STARLINK-4502,PAYLOAD,2023-10-14 13:52:11,15.08849791,0.0001371,53.2183,41.6306,90.2356,269.8794,0.00014502,2.021e-05,0.0,0 STARLINK-4502,1 53557U 22101AG  23287.57790913  .00002021  00000-0  14502-3 0  9994,2 53557  53.2183  41.6306 0001371  90.2356 269.8794 15.08849791 64542,6917.85,95.437,540.664,538.767,0.0
53557.0,STARLINK-4502,PAYLOAD,2023-10-14 15:27:34,15.08858672,0.0001508,53.2184,41.3328,84.4397,275.6767,0.00027301,4.062e-05,0.0,0 STARLINK-4502,1 53557U 22101AG  23287.64414469  .00004062  00000-0  27301-3 0  9999,2 53557  53.2184  41.3328 0001508  84.4397 275.6767 15.08858672 63908,6917.823,95.436,540.732,538.645,0.0
53557.0,STARLINK-4502,PAYLOAD,2023-10-15 13:42:59,15.08829154,0.0001625,53.2197,37.1685,96.4791,263.6386,-1.7506e-05,-5.67e-06,0.0,0 STARLINK-4502,1 53557U 22101AG  23288.57152604 -.00000567  00000-0 -17506-4 0  9997,2 53557  53.2197  37.1685 0001625  96.4791 263.6386 15.08829154 64045,6917.914,95.438,540.903,538.654,0.0
53557.0,STARLINK-4502,PAYLOAD,2023-10-15 16:53:45,15.08834856,0.0001439,53.2184,36.576,94.3029,265.8128,-3.6759e-05,-8.73e-06,0.0,0 STARLINK-4502,1 53557U 22101AG  23288.70400164 -.00000873  00000-0 -36759-4 0  9990,2 53557  53.2184  36.5760 0001439  94.3029 265.8128 15.08834856 64719,6917.896,95.438,540.757,538.766,0.0
53557.0,STARLINK-4502,PAYLOAD,2023-10-16 10:23:00,15.08844084,0.0001415,53.2191,33.303,93.2187,266.8967,2.4853e-05,1.08e-06,0.0,0 STARLINK-4502,1 53557U 22101AG  23289.43264054  .00000108  00000-0  24853-4 0  9998,2 53557  53.2191  33.3030 0001415  93.2187 266.8967 15.08844084 64175,6917.868,95.437,540.712,538.754,0.0
53557.0,STARLINK-4502,PAYLOAD,2023-10-16 11:58:23,15.08844084,0.0001578,53.219,33.0067,80.9903,279.1267,2.8349e-05,1.63e-06,0.0,0 STARLINK-4502,1 53557U 22101AG  23289.49887866  .00000163  00000-0  28349-4 0  9991,2 53557  53.2190  33.0067 0001578  80.9903 279.1267 15.08844084 64833,6917.868,95.437,540.825,538.641,0.0
53557.0,STARLINK-4502,PAYLOAD,2023-10-16 16:44:32,15.08854259,0.0001525,53.219,32.1128,99.1226,260.9938,0.00020104,2.914e-05,0.0,0 STARLINK-4502,1 53557U 22101AG  23289.69759525  .00002914  00000-0  20104-3 0  9999,2 53557  53.2190  32.1128 0001525  99.1226 260.9938 15.08854259 64213,6917.837,95.437,540.757,538.647,0.0
53557.0,STARLINK-4502,PAYLOAD,2023-10-17 13:24:33,15.08847086,0.0001461,53.2189,28.2487,93.512,266.6039,0.00030014,4.493e-05,0.0,0 STARLINK-4502,1 53557U 22101AG  23290.55872094  .00004493  00000-0  30014-3 0  9998,2 53557  53.2189  28.2487 0001461  93.5120 266.6039 15.08847086 64344,6917.859,95.437,540.734,538.713,0.0
53557.0,STARLINK-4502,PAYLOAD,2023-10-18 13:15:20,15.08848,0.0001397,53.2177,23.7898,89.7579,270.3573,0.00015996,2.259e-05,0.0,0 STARLINK-4502,1 53557U 22101AG  23291.55232014  .00002259  00000-0  15996-3 0  9991,2 53557  53.2177  23.7898 0001397  89.7579 270.3573 15.08848000 64498,6917.856,95.437,540.687,538.755,0.0
